{
  "norad_id": 64900,
  "name": "CO3D 3",
  "history": [
    {
      "epoch": "2026-03-24T16:06:35.440992Z",
      "apogee_km": 629.9245140634157,
      "perigee_km": 382.0519473563827,
      "latitude_deg": 4.399949818283881e-05,
      "longitude_deg": 100.00736614279089,
      "height_km": 624.1605872779284,
      "semi_major_axis_km": 6884.1252307098985,
      "eccentricity": 0.0180032,
      "inclination_deg": 98.029,
      "raan_deg": 163.8008,
      "arg_perigee_deg": 158.7023,
      "mean_anomaly_deg": 202.1829,
      "mean_motion_rev_day": 15.1995111
    }
  ]
}